{"fetched_at":"2026-03-29T16:36:15Z","count":15609,"tles":[{"name":"YAOGAN-11","line1":"1 37165U 10047A   26088.17830003  .00001257  00000+0  16449-3 0  9991","line2":"2 37165  98.3974 310.4635 0035580 137.7593 222.6369 14.81950699836247","category":"Other"},{"name":"SPACEBEE-143","line1":"1 52394U 22047A   23362.49104694  .00071383  00000+0  14757-2 0  9998","line2":"2 52394  97.4065  87.1544 0004743  12.9232 347.2137 15.45553610 93488","category":"Other"},{"name":"UNKNOWN","line1":"1 88234U          23202.75491738  .00007113  00000+0  51025-3 0  9995","line2":"2 88234  97.6646 253.2684 0014698 156.0153 204.1761 15.04561034  3636","category":"Other"},{"name":"STARLINK-34045","line1":"1 63979U 25099AD  26088.21428832  .00043521  00000+0  15797-2 0  9998","line2":"2 63979  42.9998  62.3684 0000739 257.2160 102.8609 15.27621695 50272","category":"Starlink"},{"name":"CZ-6A DEB","line1":"1 60695U 24140CY  24249.30008351  .00003242  00000+0  16299-2 0  9997","line2":"2 60695  89.0569 348.0461 0062047 130.0327 230.6328 14.15259050  3623","category":"Other"},{"name":"STARLINK-35476","line1":"1 66825U 25280E   26087.92461191  .00000265  00000+0  30001-4 0  9990","line2":"2 66825  69.9999 286.0947 0003041 270.3669  89.7141 14.98326458 18950","category":"Starlink"},{"name":"TIANHUI 2-01A","line1":"1 44207U 19024A   26086.55154431  .00002035  00000+0  10729-3 0  9994","line2":"2 44207  97.4821  91.5692 0001241  86.4292 273.7083 15.16705907 89762","category":"Other"},{"name":"OPTIMAL-1","line1":"1 55183U 98067VA  23233.39098961  .05183587  12307-4  74211-3 0  9992","line2":"2 55183  51.6347 331.0564 0010608 323.4939  36.5361 16.33792705 35689","category":"Other"},{"name":"STARLINK-31215","line1":"1 58872U 24019V   26088.16754148 -.00001327  00000+0 -38684-4 0  9993","line2":"2 58872  43.0000 138.7189 0001016 277.7055  82.3681 15.27589036122040","category":"Starlink"},{"name":"CZ-12 R/B","line1":"1 65115U 25168K   25246.17765730  .00000147  00000+0  14693-3 0  9992","line2":"2 65115  49.9845 294.3205 0076708 218.1934 141.3525 14.16461041  4227","category":"Other"},{"name":"COSMOS 2251 DEB","line1":"1 34131U 93036LC  23177.66943330  .00040838  00000+0  41227-2 0  9997","line2":"2 34131  74.1099 246.9714 0012197 358.1113 156.9543 14.90811963762009","category":"Other"},{"name":"ONEWEB-0378","line1":"1 49304U 21090AB  26088.10877758  .00000026  00000+0  32860-4 0  9999","line2":"2 49304  87.9143 290.4337 0001601  92.0392 268.0924 13.20771915219217","category":"Other"},{"name":"STARLINK-32562","line1":"1 62168U 24225F   26088.17522951  .00002094  00000+0  18319-3 0  9993","line2":"2 62168  70.0004 115.3292 0003844 271.4959  88.5760 14.98340649 72792","category":"Starlink"},{"name":"STARLINK-36856","line1":"1 67883U 26035E   26088.05535352  .00344551  00000+0  22074-2 0  9998","line2":"2 67883  97.2871  21.4348 0001838 111.1107 249.0355 15.75311125  6894","category":"Starlink"},{"name":"STARLINK-1728","line1":"1 46582U 20070BC  26088.13598499  .00130745  00000+0  17707-2 0  9999","line2":"2 46582  53.0406  31.3926 0002482 207.7204 152.3674 15.56781839303251","category":"Starlink"},{"name":"ONEWEB-0678","line1":"1 56714U 23068E   26088.07162470  .00000064  00000+0  13534-3 0  9991","line2":"2 56714  87.8939 275.1795 0001924  97.8119 262.3230 13.15549520138753","category":"Other"},{"name":"STARLINK-31980","line1":"1 59962U 24107T   26088.07875031 -.00001313  00000+0 -32225-4 0  9997","line2":"2 59962  53.1638 335.5671 0001276  83.1983 276.9163 15.30190139102769","category":"Starlink"},{"name":"STARLINK-35342","line1":"1 66181U 25243E   26088.17089609  .00030177  00000+0  10263-2 0  9993","line2":"2 66181  53.1597 154.9608 0001789 100.7181 259.4021 15.30216265 23638","category":"Starlink"},{"name":"X-SAT","line1":"1 37389U 11015C   26088.19061975  .00000391  00000+0  18377-3 0  9991","line2":"2 37389  98.3454  69.0531 0013170 214.2195 145.8138 14.25181342776286","category":"Other"},{"name":"STARLINK-3878","line1":"1 52479U 22049AE  26087.92334906  .00009415  00000+0  60789-3 0  9994","line2":"2 52479  53.2178 322.7803 0001670  80.8712 279.2469 15.08899363216538","category":"Starlink"},{"name":"STARLINK-11608 [DTC]","line1":"1 63275U 25053L   26088.09580699  .00278668  00000+0  20989-2 0  9994","line2":"2 63275  43.0034 355.0710 0002451 282.3071  77.7522 15.70888561 60718","category":"Starlink"},{"name":"SOYUZ-MS 24","line1":"1 57862U 23143A   24096.82889997  .00012018  00000+0  21868-3 0  9991","line2":"2 57862  51.6382 314.1579 0004630  39.1962 320.9362 15.49935800 31472","category":"Other"},{"name":"STARLINK-34096","line1":"1 64043U 25102X   26088.20578068  .00009859  00000+0  83235-3 0  9991","line2":"2 64043  70.0005  65.3194 0003636 269.6783  90.3959 14.98353143 48769","category":"Starlink"},{"name":"CZ-6A DEB","line1":"1 60760U 24140EK  24249.28574373  .00012914  00000+0  31121-2 0  9996","line2":"2 60760  89.0291 347.7390 0101664 328.1040  31.4036 14.50042083  3714","category":"Other"},{"name":"STARLINK-35852","line1":"1 66889U 25283M   26087.95631423  .00023301  00000+0  79650-3 0  9991","line2":"2 66889  53.1602 294.6991 0001274  79.0138 281.1006 15.30194417 18796","category":"Starlink"},{"name":"YAOGAN-30 06B","line1":"1 44450U 19045B   26088.21402884  .00004212  00000+0  31452-3 0  9995","line2":"2 44450  34.9921  96.9280 0007721  96.5536 263.6051 15.02279409364625","category":"Other"},{"name":"STARLINK-5309","line1":"1 55310U 23010AT  26088.07308009 -.00001066  00000+0 -81608-4 0  9992","line2":"2 55310  69.9989 315.6687 0002550 260.8231  99.2640 14.98326443176677","category":"Starlink"},{"name":"STARLINK-31383","line1":"1 58936U 24027F   26088.08422190 -.00002892  00000+0 -85645-4 0  9990","line2":"2 58936  53.1622 219.8245 0001094 110.5030 249.6088 15.30172511120294","category":"Starlink"},{"name":"STARLINK-34965","line1":"1 65186U 25175N   26088.17992941  .00001938  00000+0  13846-3 0  9997","line2":"2 65186  97.6049 321.8745 0003179  65.5934 294.5624 15.05662534 35574","category":"Starlink"},{"name":"COSMOS 2251 DEB","line1":"1 34397U 93036QN  23178.82612698  .00021571  00000+0  15335-2 0  9994","line2":"2 34397  73.8424  67.8603 0045998 310.7164 167.2629 15.03752336771758","category":"Other"},{"name":"STARLINK-3079","line1":"1 49433U 21104AB  26088.10738126  .00000489  00000+0  48802-4 0  9999","line2":"2 49433  53.2156 121.9517 0001228  88.0926 272.0207 15.08841457242932","category":"Starlink"},{"name":"STARLINK-32636","line1":"1 62232U 24231Q   26088.09913259  .00019718  00000+0  67485-3 0  9997","line2":"2 62232  53.1596 129.2226 0001349  84.3423 275.7731 15.30259518 74744","category":"Starlink"},{"name":"STARLINK-36920","line1":"1 67947U 26037R   26088.06547776  .00097637  00000+0  16480-2 0  9999","line2":"2 67947  43.0019  82.2002 0001739 259.7875 100.2789 15.50603324  6292","category":"Starlink"},{"name":"FLOCK 4V-22","line1":"1 46735U 20061BL  23301.70124871  .01016345  46423-3  28427-2 0  9990","line2":"2 46735  97.3161  15.0939 0003430 255.0500 105.0396 15.93715809168094","category":"Other"},{"name":"STARLINK-5931","line1":"1 56785U 23078U   26087.89343454  .00000206  00000+0  25053-4 0  9990","line2":"2 56785  69.9977 296.1621 0002817 267.4110  92.6727 14.98331463156249","category":"Starlink"},{"name":"STARLINK-31825","line1":"1 60056U 24112U   26088.02238184 -.00000551  00000+0 -64846-5 0  9994","line2":"2 60056  53.1641 348.4039 0001469 103.2307 256.8857 15.30196154101554","category":"Starlink"},{"name":"STARLINK-35503","line1":"1 66245U 25245M   26088.03040471  .00031670  00000+0  10756-2 0  9991","line2":"2 66245  53.1591 194.3425 0001272  80.1057 280.0088 15.30236636 24164","category":"Starlink"},{"name":"COSMOS 2251 DEB","line1":"1 37506U 93036BMK 23178.99814029  .00031305  00000+0  44147-2 0  9998","line2":"2 37506  74.0465 295.7264 0016974 158.3532 201.8364 14.76998130725688","category":"Other"},{"name":"STARLINK-3920","line1":"1 52575U 22051AR  26050.51927133  .11133850  12628-4  15628-3 0  9998","line2":"2 52575  53.1811 103.8024 0003585 301.4684  58.6017 16.48851971210190","category":"Starlink"},{"name":"LEMUR-2-KREMPEL-BRO2","line1":"1 63353U 25061C   26087.90731961  .00004617  00000+0  26136-3 0  9991","line2":"2 63353  97.5630  64.4275 0019729 168.5686 191.5997 15.13372047 55462","category":"Other"},{"name":"ATS 1","line1":"1 02608U 66110A   26087.85766474 -.00000291  00000+0  00000+0 0  9991","line2":"2 02608   4.7724  70.6788 0006594 194.0001  10.1144  1.00322700133998","category":"Other"},{"name":"STARLINK-36878","line1":"1 67899U 26035W   26088.08429094  .00319419  00000+0  20521-2 0  9993","line2":"2 67899  97.2871  21.5466 0001833  83.5075 276.6399 15.75315803  6907","category":"Starlink"},{"name":"FENGYUN 1C DEB","line1":"1 32364U 99025CZH 26087.35787122  .00003722  00000+0  17845-2 0  9991","line2":"2 32364  98.3143 284.1490 0128532 238.2848 120.5746 14.15289267652027","category":"Weather"},{"name":"STARLINK-2214","line1":"1 48566U 21041P   26088.21691490  .00001588  00000+0  12543-3 0  9992","line2":"2 48566  53.0557  53.9294 0001569  89.9473 270.1695 15.06409952268006","category":"Starlink"},{"name":"STARLINK-30970","line1":"1 58888U 24020N   24059.56995562  .00001947  00000+0  82873-4 0  9994","line2":"2 58888  53.1591 159.6363 0001371  99.0152 261.1003 15.28040851  5927","category":"Starlink"},{"name":"JIELONG-3 R/B","line1":"1 65131U 25170N   25222.75348174  .20209411  14084-4  87823-4 0  9995","line2":"2 65131  50.1636 174.2758 0162424 353.8728  76.8326 16.29165810   324","category":"Other"},{"name":"SL-12 R/B(2)","line1":"1 19076U 88034D   26087.73199419  .00000059  00000+0  00000+0 0  9994","line2":"2 19076  11.3773 328.1045 0021998 189.4675 157.4615  1.00089663138294","category":"Other"},{"name":"ORS-5 SENSORSAT","line1":"1 42921U 17050A   26088.21738592  .00003851  00000+0  23200-3 0  9998","line2":"2 42921   0.0493  21.1724 0010532 310.5320  28.2385 15.00603388469021","category":"Other"}]}